CCSDS_OMM_VERS = 2.0
CREATION_DATE  = 
ORIGINATOR     = 

OBJECT_NAME    = ATLAS CENTAUR 2
OBJECT_ID      = 1963-047A
CENTER_NAME    = EARTH
REF_FRAME      = TEME
TIME_SYSTEM    = UTC
MEAN_ELEMENT_THEORY = SGP/SGP4

EPOCH          = 2026-02-05T22:40:25.965408
MEAN_MOTION    = 14.11979737
ECCENTRICITY   = .05481047
INCLINATION    = 30.3553
RA_OF_ASC_NODE = 13.0351
ARG_OF_PERICENTER = 160.5612
MEAN_ANOMALY   = 201.6784

EPHEMERIS_TYPE = 0
CLASSIFICATION_TYPE = U
NORAD_CAT_ID   = 694
ELEMENT_SET_NO = 999
REV_AT_EPOCH   = 12713
BSTAR          = .20338264E-3
MEAN_MOTION_DOT = .1766E-4
MEAN_MOTION_DDOT = 0

CCSDS_OMM_VERS = 2.0
CREATION_DATE  = 
ORIGINATOR     = 

OBJECT_NAME    = THOR AGENA D R/B
OBJECT_ID      = 1964-002A
CENTER_NAME    = EARTH
REF_FRAME      = TEME
TIME_SYSTEM    = UTC
MEAN_ELEMENT_THEORY = SGP/SGP4

EPOCH          = 2026-02-05T23:37:35.198688
MEAN_MOTION    = 14.34000111
ECCENTRICITY   = .00327596
INCLINATION    = 99.1228
RA_OF_ASC_NODE = 48.5955
ARG_OF_PERICENTER = 352.5847
MEAN_ANOMALY   = 7.4847

EPHEMERIS_TYPE = 0
CLASSIFICATION_TYPE = U
NORAD_CAT_ID   = 733
ELEMENT_SET_NO = 999
REV_AT_EPOCH   = 23375
BSTAR          = .13434369E-3
MEAN_MOTION_DOT = .328E-5
MEAN_MOTION_DDOT = 0

CCSDS_OMM_VERS = 2.0
CREATION_DATE  = 
ORIGINATOR     = 

OBJECT_NAME    = SL-3 R/B
OBJECT_ID      = 1964-053B
CENTER_NAME    = EARTH
REF_FRAME      = TEME
TIME_SYSTEM    = UTC
MEAN_ELEMENT_THEORY = SGP/SGP4

EPOCH          = 2026-02-05T12:39:34.087104
MEAN_MOTION    = 14.61334299
ECCENTRICITY   = .0078131
INCLINATION    = 65.0763
RA_OF_ASC_NODE = 65.5271
ARG_OF_PERICENTER = 302.4391
MEAN_ANOMALY   = 56.9169

EPHEMERIS_TYPE = 0
CLASSIFICATION_TYPE = U
NORAD_CAT_ID   = 877
ELEMENT_SET_NO = 999
REV_AT_EPOCH   = 26209
BSTAR          = .13014E-3
MEAN_MOTION_DOT = .547E-5
MEAN_MOTION_DDOT = 0

CCSDS_OMM_VERS = 2.0
CREATION_DATE  = 
ORIGINATOR     = 

OBJECT_NAME    = SL-8 R/B
OBJECT_ID      = 1967-045B
CENTER_NAME    = EARTH
REF_FRAME      = TEME
TIME_SYSTEM    = UTC
MEAN_ELEMENT_THEORY = SGP/SGP4

EPOCH          = 2026-02-05T07:50:07.350144
MEAN_MOTION    = 14.45591152
ECCENTRICITY   = .0062975
INCLINATION    = 74.0099
RA_OF_ASC_NODE = 48.5274
ARG_OF_PERICENTER = 63.0373
MEAN_ANOMALY   = 297.7197

EPHEMERIS_TYPE = 0
CLASSIFICATION_TYPE = U
NORAD_CAT_ID   = 2802
ELEMENT_SET_NO = 999
REV_AT_EPOCH   = 8434
BSTAR          = .11069E-3
MEAN_MOTION_DOT = .373E-5
MEAN_MOTION_DDOT = 0

CCSDS_OMM_VERS = 2.0
CREATION_DATE  = 
ORIGINATOR     = 

OBJECT_NAME    = SL-8 R/B
OBJECT_ID      = 1968-040B
CENTER_NAME    = EARTH
REF_FRAME      = TEME
TIME_SYSTEM    = UTC
MEAN_ELEMENT_THEORY = SGP/SGP4

EPOCH          = 2026-02-05T23:05:48.360192
MEAN_MOTION    = 15.03014269
ECCENTRICITY   = .00255003
INCLINATION    = 74.0325
RA_OF_ASC_NODE = 18.5063
ARG_OF_PERICENTER = 211.6355
MEAN_ANOMALY   = 148.3302

EPHEMERIS_TYPE = 0
CLASSIFICATION_TYPE = U
NORAD_CAT_ID   = 3230
ELEMENT_SET_NO = 999
REV_AT_EPOCH   = 8524
BSTAR          = .44601929E-3
MEAN_MOTION_DOT = .6009E-4
MEAN_MOTION_DDOT = 0

CCSDS_OMM_VERS = 2.0
CREATION_DATE  = 
ORIGINATOR     = 

OBJECT_NAME    = OAO 2
OBJECT_ID      = 1968-110A
CENTER_NAME    = EARTH
REF_FRAME      = TEME
TIME_SYSTEM    = UTC
MEAN_ELEMENT_THEORY = SGP/SGP4

EPOCH          = 2026-02-05T13:34:31.536192
MEAN_MOTION    = 14.47288204
ECCENTRICITY   = .0006046
INCLINATION    = 34.9935
RA_OF_ASC_NODE = 84.5745
ARG_OF_PERICENTER = 297.8212
MEAN_ANOMALY   = 62.1866

EPHEMERIS_TYPE = 0
CLASSIFICATION_TYPE = U
NORAD_CAT_ID   = 3597
ELEMENT_SET_NO = 999
REV_AT_EPOCH   = 1444
BSTAR          = .13097E-3
MEAN_MOTION_DOT = .467E-5
MEAN_MOTION_DDOT = 0

CCSDS_OMM_VERS = 2.0
CREATION_DATE  = 
ORIGINATOR     = 

OBJECT_NAME    = ISIS 1
OBJECT_ID      = 1969-009A
CENTER_NAME    = EARTH
REF_FRAME      = TEME
TIME_SYSTEM    = UTC
MEAN_ELEMENT_THEORY = SGP/SGP4

EPOCH          = 2026-02-05T20:30:58.761792
MEAN_MOTION    = 11.30400129
ECCENTRICITY   = .17078388
INCLINATION    = 88.4553
RA_OF_ASC_NODE = 158.7773
ARG_OF_PERICENTER = 153.3951
MEAN_ANOMALY   = 216.6111

EPHEMERIS_TYPE = 0
CLASSIFICATION_TYPE = U
NORAD_CAT_ID   = 3669
ELEMENT_SET_NO = 999
REV_AT_EPOCH   = 34493
BSTAR          = .31001308E-3
MEAN_MOTION_DOT = .451E-5
MEAN_MOTION_DDOT = 0

CCSDS_OMM_VERS = 2.0
CREATION_DATE  = 
ORIGINATOR     = 

OBJECT_NAME    = SERT 2
OBJECT_ID      = 1970-009A
CENTER_NAME    = EARTH
REF_FRAME      = TEME
TIME_SYSTEM    = UTC
MEAN_ELEMENT_THEORY = SGP/SGP4

EPOCH          = 2026-02-05T19:29:56.513760
MEAN_MOTION    = 13.58726483
ECCENTRICITY   = .00040209
INCLINATION    = 99.2720
RA_OF_ASC_NODE = 341.6577
ARG_OF_PERICENTER = 243.5532
MEAN_ANOMALY   = 170.8918

EPHEMERIS_TYPE = 0
CLASSIFICATION_TYPE = U
NORAD_CAT_ID   = 4327
ELEMENT_SET_NO = 999
REV_AT_EPOCH   = 77556
BSTAR          = .12616595E-3
MEAN_MOTION_DOT = .51E-6
MEAN_MOTION_DDOT = 0

CCSDS_OMM_VERS = 2.0
CREATION_DATE  = 
ORIGINATOR     = 

OBJECT_NAME    = SL-3 R/B
OBJECT_ID      = 1971-028B
CENTER_NAME    = EARTH
REF_FRAME      = TEME
TIME_SYSTEM    = UTC
MEAN_ELEMENT_THEORY = SGP/SGP4

EPOCH          = 2026-02-05T23:09:36.006912
MEAN_MOTION    = 15.58642502
ECCENTRICITY   = .00176512
INCLINATION    = 81.2351
RA_OF_ASC_NODE = 91.1419
ARG_OF_PERICENTER = 46.1329
MEAN_ANOMALY   = 314.1378

EPHEMERIS_TYPE = 0
CLASSIFICATION_TYPE = U
NORAD_CAT_ID   = 5118
ELEMENT_SET_NO = 999
REV_AT_EPOCH   = 98372
BSTAR          = .54422925E-3
MEAN_MOTION_DOT = .42235E-3
MEAN_MOTION_DDOT = 0

CCSDS_OMM_VERS = 2.0
CREATION_DATE  = 
ORIGINATOR     = 

OBJECT_NAME    = ASTEX 1
OBJECT_ID      = 1971-089A
CENTER_NAME    = EARTH
REF_FRAME      = TEME
TIME_SYSTEM    = UTC
MEAN_ELEMENT_THEORY = SGP/SGP4

EPOCH          = 2026-02-05T17:58:43.889376
MEAN_MOTION    = 14.50731772
ECCENTRICITY   = .00153719
INCLINATION    = 92.7153
RA_OF_ASC_NODE = 141.4255
ARG_OF_PERICENTER = 184.3221
MEAN_ANOMALY   = 175.7855

EPHEMERIS_TYPE = 0
CLASSIFICATION_TYPE = U
NORAD_CAT_ID   = 5560
ELEMENT_SET_NO = 999
REV_AT_EPOCH   = 85767
BSTAR          = .23993707E-3
MEAN_MOTION_DOT = .943E-5
MEAN_MOTION_DDOT = 0

CCSDS_OMM_VERS = 2.0
CREATION_DATE  = 
ORIGINATOR     = 

OBJECT_NAME    = SL-8 R/B
OBJECT_ID      = 1971-119B
CENTER_NAME    = EARTH
REF_FRAME      = TEME
TIME_SYSTEM    = UTC
MEAN_ELEMENT_THEORY = SGP/SGP4

EPOCH          = 2026-02-05T22:02:28.767264
MEAN_MOTION    = 14.36896345
ECCENTRICITY   = .05541533
INCLINATION    = 73.8851
RA_OF_ASC_NODE = 235.0647
ARG_OF_PERICENTER = 208.2111
MEAN_ANOMALY   = 148.7986

EPHEMERIS_TYPE = 0
CLASSIFICATION_TYPE = U
NORAD_CAT_ID   = 5730
ELEMENT_SET_NO = 999
REV_AT_EPOCH   = 65092
BSTAR          = .72462733E-3
MEAN_MOTION_DOT = .13974E-3
MEAN_MOTION_DDOT = 0

CCSDS_OMM_VERS = 2.0
CREATION_DATE  = 
ORIGINATOR     = 

OBJECT_NAME    = OAO 3 (COPERNICUS)
OBJECT_ID      = 1972-065A
CENTER_NAME    = EARTH
REF_FRAME      = TEME
TIME_SYSTEM    = UTC
MEAN_ELEMENT_THEORY = SGP/SGP4

EPOCH          = 2026-02-05T14:42:36.074592
MEAN_MOTION    = 14.59969409
ECCENTRICITY   = .0007226
INCLINATION    = 35.0053
RA_OF_ASC_NODE = 120.0635
ARG_OF_PERICENTER = 260.0669
MEAN_ANOMALY   = 260.8968

EPHEMERIS_TYPE = 0
CLASSIFICATION_TYPE = U
NORAD_CAT_ID   = 6153
ELEMENT_SET_NO = 999
REV_AT_EPOCH   = 84150
BSTAR          = .13896E-3
MEAN_MOTION_DOT = .656E-5
MEAN_MOTION_DDOT = 0

