ATLAS CENTAUR 2         
1 00694U 63047A   26036.94474497  .00001766  00000+0  20338-3 0  9992
2 00694  30.3553  13.0351 0548104 160.5612 201.6784 14.11979737127137
THOR AGENA D R/B        
1 00733U 64002A   26036.98443517  .00000328  00000+0  13434-3 0  9993
2 00733  99.1228  48.5955 0032759 352.5847   7.4847 14.34000111233757
SL-3 R/B                
1 00877U 64053B   26036.52747786  .00000547  00000+0  13014-3 0  9990
2 00877  65.0763  65.5271 0078131 302.4391  56.9169 14.61334299262096
SL-8 R/B                
1 02802U 67045B   26036.32647396  .00000373  00000+0  11069-3 0  9993
2 02802  74.0099  48.5274 0062975  63.0373 297.7197 14.45591152 84342
SL-8 R/B                
1 03230U 68040B   26036.96236528  .00006009  00000+0  44602-3 0  9997
2 03230  74.0325  18.5063 0025500 211.6355 148.3302 15.03014269 85240
OAO 2                   
1 03597U 68110A   26036.56564278  .00000467  00000+0  13097-3 0  9999
2 03597  34.9935  84.5745 0006046 297.8212  62.1866 14.47288204 14441
ISIS 1                  
1 03669U 69009A   26036.85484678  .00000451  00000+0  31001-3 0  9992
2 03669  88.4553 158.7773 1707838 153.3951 216.6111 11.30400129344930
SERT 2                  
1 04327U 70009A   26036.81245965  .00000051  00000+0  12617-3 0  9994
2 04327  99.2720 341.6577 0004020 243.5532 170.8918 13.58726483775561
SL-3 R/B                
1 05118U 71028B   26036.96500008  .00042235  00000+0  54423-3 0  9994
2 05118  81.2351  91.1419 0017651  46.1329 314.1378 15.58642502983721
ASTEX 1                 
1 05560U 71089A   26036.74911909  .00000943  00000+0  23994-3 0  9993
2 05560  92.7153 141.4255 0015371 184.3221 175.7855 14.50731772857673
SL-8 R/B                
1 05730U 71119B   26036.91838851  .00013974  00000+0  72463-3 0  9992
2 05730  73.8851 235.0647 0554153 208.2111 148.7986 14.36896345650928
OAO 3 (COPERNICUS)      
1 06153U 72065A   26036.61291753  .00000656  00000+0  13896-3 0  9992
2 06153  35.0053 120.0635 0007226 260.0669 260.8968 14.59969409841509
